{"type": "FeatureCollection", "features": [ {"type": "Feature", "properties": {"norad_id": 67070, "name": "DEAR-5", "group": "last-30-days", "lat": -35.39105379881722, "lon": -1.2212609972419928, "alt_km": 527.6103476518074, "timestamp": "2025-12-21T07:34:33.304656+00:00", "meta": {"OBJECT_NAME": "DEAR-5", "OBJECT_ID": "2025-296B", "EPOCH": "2025-12-20T14:27:47.771136", "MEAN_MOTION": 15.16880771, "ECCENTRICITY": 0.0016088, "INCLINATION": 41.3553, "RA_OF_ASC_NODE": 56.714, "ARG_OF_PERICENTER": 82.8141, "MEAN_ANOMALY": 277.4509, "EPHEMERIS_TYPE": 0, "CLASSIFICATION_TYPE": "U", "NORAD_CAT_ID": 67070, "ELEMENT_SET_NO": 999, "REV_AT_EPOCH": 114, "BSTAR": 0.00017212, "MEAN_MOTION_DOT": 3.26e-05, "MEAN_MOTION_DDOT": 0}, "tle": {"line1": "1 67070U 25296B   25354.60263624  .00003260  00000+0  17212-3 0  9998", "line2": "2 67070  41.3553  56.7140 0016088  82.8141 277.4509 15.16880771  1147"}}, "geometry": {"type": "Point", "coordinates": [-1.2212609972419928, -35.39105379881722]}}, {"type": "Feature", "properties": {"norad_id": 67071, "name": "KZ-11 R/B", "group": "last-30-days", "lat": 26.146869445155996, "lon": -158.83962921661168, "alt_km": 696.1659393375812, "timestamp": "2025-12-21T07:34:33.304666+00:00", "meta": {"OBJECT_NAME": "KZ-11 R/B", "OBJECT_ID": "2025-296C", "EPOCH": "2025-12-21T02:16:00.395328", "MEAN_MOTION": 15.17747854, "ECCENTRICITY": 0.0553009, "INCLINATION": 41.3189, "RA_OF_ASC_NODE": 56.4094, "ARG_OF_PERICENTER": 11.8447, "MEAN_ANOMALY": 349.4798, "EPHEMERIS_TYPE": 0, "CLASSIFICATION_TYPE": "U", "NORAD_CAT_ID": 67071, "ELEMENT_SET_NO": 999, "REV_AT_EPOCH": 119, "BSTAR": 0.00052942, "MEAN_MOTION_DOT": 0.07251182, "MEAN_MOTION_DDOT": 6.7322e-06}, "tle": {"line1": "1 67071U 25296C   25355.09444902  .07251182  67322-5  52942-3 0  9993", "line2": "2 67071  41.3189  56.4094 0553009  11.8447 349.4798 15.17747854  1198"}}, "geometry": {"type": "Point", "coordinates": [-158.83962921661168, 26.146869445155996]}}, {"type": "Feature", "properties": {"norad_id": 67072, "name": "ELECTRON R/B", "group": "last-30-days", "lat": 62.59712386623485, "lon": 128.8097963519118, "alt_km": 346.95514059649304, "timestamp": "2025-12-21T07:34:33.304675+00:00", "meta": {"OBJECT_NAME": "ELECTRON R/B", "OBJECT_ID": "2025-297A", "EPOCH": "2025-12-20T22:17:21.699168", "MEAN_MOTION": 15.97611457, "ECCENTRICITY": 0.01675113, "INCLINATION": 97.4649, "RA_OF_ASC_NODE": 143.0304, "ARG_OF_PERICENTER": 202.9699, "MEAN_ANOMALY": 156.4027, "EPHEMERIS_TYPE": 0, "CLASSIFICATION_TYPE": "U", "NORAD_CAT_ID": 67072, "ELEMENT_SET_NO": 999, "REV_AT_EPOCH": 108, "BSTAR": 0.0012878282, "MEAN_MOTION_DOT": 0.02876125, "MEAN_MOTION_DDOT": 2.208533e-06}, "tle": {"line1": "1 67072U 25297A   25354.92872337  .02876125  22085-5  12878-2 0  9998", "line2": "2 67072  97.4649 143.0304 0167511 202.9699 156.4027 15.97611457  1086"}}, "geometry": {"type": "Point", "coordinates": [128.8097963519118, 62.59712386623485]}}, {"type": "Feature", "properties": {"norad_id": 67073, "name": "RAISE-4", "group": "last-30-days", "lat": -75.69285621503506, "lon": 173.6692892596212, "alt_km": 544.3097244621513, "timestamp": "2025-12-21T07:34:33.304684+00:00", "meta": {"OBJECT_NAME": "RAISE-4", "OBJECT_ID": "2025-297B", "EPOCH": "2025-12-20T20:45:58.863168", "MEAN_MOTION": 15.0718781, "ECCENTRICITY": 0.00113818, "INCLINATION": 97.4855, "RA_OF_ASC_NODE": 142.1956, "ARG_OF_PERICENTER": 290.8012, "MEAN_ANOMALY": 69.1996, "EPHEMERIS_TYPE": 0, "CLASSIFICATION_TYPE": "U", "NORAD_CAT_ID": 67073, "ELEMENT_SET_NO": 999, "REV_AT_EPOCH": 101, "BSTAR": 0.00019011861, "MEAN_MOTION_DOT": 2.803e-05, "MEAN_MOTION_DDOT": 0}, "tle": {"line1": "1 67073U 25297B   25354.86526462  .00002803  00000+0  19012-3 0  9994", "line2": "2 67073  97.4855 142.1956 0011381 290.8012  69.1996 15.07187810  1017"}}, "geometry": {"type": "Point", "coordinates": [173.6692892596212, -75.69285621503506]}}, {"type": "Feature", "properties": {"norad_id": 67074, "name": "ELECTRON KICK STAGE R/B", "group": "last-30-days", "lat": 76.41188862389343, "lon": 110.23737098837559, "alt_km": 514.5621102547357, "timestamp": "2025-12-21T07:34:33.304694+00:00", "meta": {"OBJECT_NAME": "ELECTRON KICK STAGE R/B", "OBJECT_ID": "2025-297C", "EPOCH": "2025-12-20T20:25:50.467584", "MEAN_MOTION": 15.56920699, "ECCENTRICITY": 0.01992603, "INCLINATION": 97.4821, "RA_OF_ASC_NODE": 142.6897, "ARG_OF_PERICENTER": 240.049, "MEAN_ANOMALY": 118.0851, "EPHEMERIS_TYPE": 0, "CLASSIFICATION_TYPE": "U", "NORAD_CAT_ID": 67074, "ELEMENT_SET_NO": 999, "REV_AT_EPOCH": 104, "BSTAR": 0.0013583739, "MEAN_MOTION_DOT": 0.00251081, "MEAN_MOTION_DDOT": 1.8673411e-05}, "tle": {"line1": "1 67074U 25297C   25354.85127856  .00251081  18673-4  13584-2 0  9999", "line2": "2 67074  97.4821 142.6897 0199260 240.0490 118.0851 15.56920699  1041"}}, "geometry": {"type": "Point", "coordinates": [110.23737098837559, 76.41188862389343]}}, {"type": "Feature", "properties": {"norad_id": 67075, "name": "STARLINK-36230", "group": "last-30-days", "lat": 28.746940805165394, "lon": 34.223118795882556, "alt_km": 302.94824167435945, "timestamp": "2025-12-21T07:34:33.304703+00:00", "meta": {"OBJECT_NAME": "STARLINK-36230", "OBJECT_ID": "2025-298A", "EPOCH": "2025-12-20T22:00:01.999584", "MEAN_MOTION": 15.90816316, "ECCENTRICITY": 0.00041073, "INCLINATION": 69.9987, "RA_OF_ASC_NODE": 226.9046, "ARG_OF_PERICENTER": 273.28, "MEAN_ANOMALY": 112.5635, "EPHEMERIS_TYPE": 0, "CLASSIFICATION_TYPE": "U", "NORAD_CAT_ID": 67075, "ELEMENT_SET_NO": 999, "REV_AT_EPOCH": 229, "BSTAR": -0.0050370044, "MEAN_MOTION_DOT": -0.01567091, "MEAN_MOTION_DDOT": 0.00068461699}, "tle": {"line1": "1 67075U 25298A   25354.91668981 -.01567091  68462-3 -50370-2 0  9995", "line2": "2 67075  69.9987 226.9046 0004107 273.2800 112.5635 15.90816316  2294"}}, "geometry": {"type": "Point", "coordinates": [34.223118795882556, 28.746940805165394]}}, {"type": "Feature", "properties": {"norad_id": 67076, "name": "STARLINK-36240", "group": "last-30-days", "lat": 27.272415141803766, "lon": 34.92340857364616, "alt_km": 302.8919084386389, "timestamp": "2025-12-21T07:34:33.304715+00:00", "meta": {"OBJECT_NAME": "STARLINK-36240", "OBJECT_ID": "2025-298B", "EPOCH": "2025-12-20T22:00:01.999584", "MEAN_MOTION": 15.90875965, "ECCENTRICITY": 0.00040631, "INCLINATION": 69.9987, "RA_OF_ASC_NODE": 226.9025, "ARG_OF_PERICENTER": 271.7824, "MEAN_ANOMALY": 115.5767, "EPHEMERIS_TYPE": 0, "CLASSIFICATION_TYPE": "U", "NORAD_CAT_ID": 67076, "ELEMENT_SET_NO": 999, "REV_AT_EPOCH": 229, "BSTAR": -0.0050367601, "MEAN_MOTION_DOT": -0.01571697, "MEAN_MOTION_DDOT": 0.00068874517}, "tle": {"line1": "1 67076U 25298B   25354.91668981 -.01571697  68875-3 -50368-2 0  9998", "line2": "2 67076  69.9987 226.9025 0004063 271.7824 115.5767 15.90875965  2296"}}, "geometry": {"type": "Point", "coordinates": [34.92340857364616, 27.272415141803766]}}, {"type": "Feature", "properties": {"norad_id": 67077, "name": "STARLINK-36243", "group": "last-30-days", "lat": 25.470951069292973, "lon": 35.752270240076804, "alt_km": 303.0435079673225, "timestamp": "2025-12-21T07:34:33.304724+00:00", "meta": {"OBJECT_NAME": "STARLINK-36243", "OBJECT_ID": "2025-298C", "EPOCH": "2025-12-20T22:00:01.999584", "MEAN_MOTION": 15.90944594, "ECCENTRICITY": 0.0004046, "INCLINATION": 69.9983, "RA_OF_ASC_NODE": 226.9004, "ARG_OF_PERICENTER": 274.5898, "MEAN_ANOMALY": 114.6214, "EPHEMERIS_TYPE": 0, "CLASSIFICATION_TYPE": "U", "NORAD_CAT_ID": 67077, "ELEMENT_SET_NO": 999, "REV_AT_EPOCH": 229, "BSTAR": -0.0050434215, "MEAN_MOTION_DOT": -0.01579187, "MEAN_MOTION_DDOT": 0.00069529451}, "tle": {"line1": "1 67077U 25298C   25354.91668981 -.01579187  69529-3 -50434-2 0  9992", "line2": "2 67077  69.9983 226.9004 0004046 274.5898 114.6214 15.90944594  2295"}}, "geometry": {"type": "Point", "coordinates": [35.752270240076804, 25.470951069292973]}}, {"type": "Feature", "properties": {"norad_id": 67078, "name": "STARLINK-36236", "group": "last-30-days", "lat": 24.127263232783587, "lon": 36.35335825574407, "alt_km": 303.03697821178775, "timestamp": "2025-12-21T07:34:33.304733+00:00", "meta": {"OBJECT_NAME": "STARLINK-36236", "OBJECT_ID": "2025-298D", "EPOCH": "2025-12-20T22:00:01.999584", "MEAN_MOTION": 15.91000962, "ECCENTRICITY": 0.00040347, "INCLINATION": 69.9986, "RA_OF_ASC_NODE": 226.8988, "ARG_OF_PERICENTER": 274.3764, "MEAN_ANOMALY": 116.2042, "EPHEMERIS_TYPE": 0, "CLASSIFICATION_TYPE": "U", "NORAD_CAT_ID": 67078, "ELEMENT_SET_NO": 999, "REV_AT_EPOCH": 229, "BSTAR": -0.0050317712, "MEAN_MOTION_DOT": -0.01580053, "MEAN_MOTION_DDOT": 0.00069638438}, "tle": {"line1": "1 67078U 25298D   25354.91668981 -.01580053  69638-3 -50318-2 0  9999", "line2": "2 67078  69.9986 226.8988 0004034 274.3764 116.2042 15.91000962  2296"}}, "geometry": {"type": "Point", "coordinates": [36.35335825574407, 24.127263232783587]}}, {"type": "Feature", "properties": {"norad_id": 67079, "name": "STARLINK-36159", "group": "last-30-days", "lat": 22.29949315456592, "lon": 37.14922343330906, "alt_km": 303.09284851898246, "timestamp": "2025-12-21T07:34:33.304742+00:00", "meta": {"OBJECT_NAME": "STARLINK-36159", "OBJECT_ID": "2025-298E", "EPOCH": "2025-12-20T22:00:01.999584", "MEAN_MOTION": 15.91071498, "ECCENTRICITY": 0.0004118, "INCLINATION": 69.9986, "RA_OF_ASC_NODE": 226.8966, "ARG_OF_PERICENTER": 274.0617, "MEAN_ANOMALY": 118.3926, "EPHEMERIS_TYPE": 0, "CLASSIFICATION_TYPE": "U", "NORAD_CAT_ID": 67079, "ELEMENT_SET_NO": 999, "REV_AT_EPOCH": 229, "BSTAR": -0.0050469313, "MEAN_MOTION_DOT": -0.0159045, "MEAN_MOTION_DDOT": 0.00070537287}, "tle": {"line1": "1 67079U 25298E   25354.91668981 -.01590450  70537-3 -50469-2 0  9999", "line2": "2 67079  69.9986 226.8966 0004118 274.0617 118.3926 15.91071498  2296"}}, "geometry": {"type": "Point", "coordinates": [37.14922343330906, 22.29949315456592]}}]}